GLOBALSTAR M057         
1 25943U 99058A   24118.15992898 -.00000067  00000+0  23096-3 0  9997
2 25943  51.9972  88.8399 0002100 237.6788 122.3858 12.24785394115952
GLOBALSTAR M031         
1 25946U 99058D   24118.59577501  .00000052  00000+0  14495-2 0  9993
2 25946  51.9945 181.2948 0001407  67.8754  83.8272 12.16007622113982
GLOBALSTAR M039         
1 25961U 99062A   24118.38396711 -.00000055  00000+0  26970-3 0  9990
2 25961  51.9833  95.1297 0002705 139.8533 220.2533 12.62289109127707
GLOBALSTAR M034         
1 25962U 99062B   24118.45285334 -.00000032  00000+0  78004-3 0  9997
2 25962  51.9909  12.0360 0014009 339.0567 192.4050 11.79427717 89338
GLOBALSTAR M029         
1 25963U 99062C   24118.52508074 -.00000067  00000+0  24123-3 0  9996
2 25963  51.9774 140.0470 0002475  21.8720 145.7180 11.99877289119226
GLOBALSTAR M061         
1 25964U 99062D   24118.49593170 -.00000020  00000+0  99427-3 0  9992
2 25964  51.9779 190.4516 0005995 259.7607 113.4683 11.76761424 72246
